OBJECT_NAME,OBJECT_ID,EPOCH,MEAN_MOTION,ECCENTRICITY,INCLINATION,RA_OF_ASC_NODE,ARG_OF_PERICENTER,MEAN_ANOMALY,EPHEMERIS_TYPE,CLASSIFICATION_TYPE,NORAD_CAT_ID,ELEMENT_SET_NO,REV_AT_EPOCH,BSTAR,MEAN_MOTION_DOT,MEAN_MOTION_DDOT
HAWK-5A,2022-057AB,2026-06-09T08:49:15.278880,15.51110045,.00059452,97.6596,318.7133,102.3019,257.8898,0,U,52757,999,22513,.29863474E-3,.17328E-3,0
HAWK-6B,2023-011A,2026-06-09T09:06:15.969600,15.22858702,.00037315,40.4990,37.6099,318.4119,41.6406,0,U,55324,999,18665,.17318451E-3,.3947E-4,0
HAWK-6C,2023-011C,2026-06-09T09:05:18.780576,15.22867772,.00043141,40.4982,34.4522,308.3612,51.6810,0,U,55326,999,18666,.18394517E-3,.4206E-4,0
HAWK-6A,2023-011D,2026-06-08T23:38:46.511520,15.22856626,.00040343,40.4991,38.3707,304.4298,55.6129,0,U,55327,999,18660,.17018096E-3,.3875E-4,0
HAWK-7A,2023-054P,2026-06-09T04:23:21.192288,15.27271822,.00048178,97.2719,47.7255,79.4079,280.7703,0,U,56191,999,17580,.58825925E-4,.15E-4,0
HAWK-7B,2023-054R,2026-06-09T04:23:13.888896,15.27279046,.00040111,97.2739,45.9844,84.5267,275.6430,0,U,56193,999,17580,.18432591E-3,.4855E-4,0
HAWK-7C,2023-054Y,2026-06-09T10:40:27.421248,15.27278820,.00040968,97.2717,47.0110,76.1703,283.9992,0,U,56200,999,17584,.19203375E-3,.5061E-4,0
